ONEWEB-0549             
1 56051U 23043F   24277.24338392  .00000112  00000+0  23954-3 0  9994
2 56051  87.9372   7.8353 0002387  95.9435 264.1971 13.21824843 76971
ONEWEB-0550             
1 56052U 23043G   24276.54949823  .00000064  00000+0  12297-3 0  9998
2 56052  87.9372   7.9766 0001805 106.7610 253.3722 13.21824793 75978
ONEWEB-0551             
1 56053U 23043H   24277.23445979  .00000063  00000+0  13394-3 0  9997
2 56053  87.9124  23.0115 0002006 103.5327 256.6026 13.15550990 75538
ONEWEB-0552             
1 56054U 23043J   24277.22446483  .00000169  00000+0  37809-3 0  9992
2 56054  87.9369   7.8523 0002019 109.4572 250.6780 13.21824894 76978
ONEWEB-0553             
1 56055U 23043K   24277.22280798  .00000085  00000+0  18979-3 0  9992
2 56055  87.9170 352.6600 0001728  90.3638 269.7691 13.16597232 78042
ONEWEB-0554             
1 56056U 23043L   24276.45018998  .00000164  00000+0  39629-3 0  9991
2 56056  87.9174 352.8368 0001662 120.6456 239.4839 13.16594503 77924
ONEWEB-0555             
1 56057U 23043M   24276.26017377 -.00000036  00000+0 -12896-3 0  9998
2 56057  87.9167 352.8435 0001338  81.5290 278.5993 13.16592278 77903
ONEWEB-0557             
1 56058U 23043N   24276.27443886  .00000155  00000+0  37119-3 0  9993
2 56058  87.9163 352.8657 0000829  86.8412 273.2813 13.16595250 77900
